[{"OBJECT_NAME":"STARLINK-1958","OBJECT_ID":"2021-009M","EPOCH":"2026-03-09T21:30:00.106848","MEAN_MOTION":15.67474201,"ECCENTRICITY":0.00053899,"INCLINATION":53.0457,"RA_OF_ASC_NODE":320.4715,"ARG_OF_PERICENTER":347.5018,"MEAN_ANOMALY":12.5863,"EPHEMERIS_TYPE":0,"CLASSIFICATION_TYPE":"U","NORAD_CAT_ID":47559,"ELEMENT_SET_NO":999,"REV_AT_EPOCH":28167,"BSTAR":0.00087609407,"MEAN_MOTION_DOT":0.00097472,"MEAN_MOTION_DDOT":0},{"OBJECT_NAME":"STARLINK-11468 [DTC]","OBJECT_ID":"2024-231D","EPOCH":"2026-03-09T19:01:14.852928","MEAN_MOTION":15.69761353,"ECCENTRICITY":0.00017569,"INCLINATION":53.1567,"RA_OF_ASC_NODE":101.0546,"ARG_OF_PERICENTER":76.4645,"MEAN_ANOMALY":283.6569,"EPHEMERIS_TYPE":0,"CLASSIFICATION_TYPE":"U","NORAD_CAT_ID":62221,"ELEMENT_SET_NO":999,"REV_AT_EPOCH":7342,"BSTAR":0.0016706203,"MEAN_MOTION_DOT":0.00207385,"MEAN_MOTION_DDOT":0}]
